STARLINK-6347           
1 57359U 23099AH  26196.09973267 -.00000330  00000+0 -24820-5 0  9997
2 57359  43.0022 242.2577 0001194 274.9863  85.0852 15.27573993165680
STARLINK-6348           
1 57360U 23099AJ  26196.19710024 -.00000162  00000+0  36595-5 0  9994
2 57360  43.0021 241.2701 0001667 269.1271  90.9390 15.27576002165702
STARLINK-6340           
1 57361U 23099AK  26196.18182182 -.00000379  00000+0 -42427-5 0  9994
2 57361  43.0033 242.0056 0001263 276.0074  84.0633 15.27576780165693
STARLINK-6343           
1 57362U 23099AL  26196.20094995 -.00000101  00000+0  58441-5 0  9997
2 57362  43.0002 241.2931 0001424 262.3495  97.7195 15.27574820165694
STARLINK-6356           
1 57363U 23099AM  26196.12785256 -.00000302  00000+0 -14432-5 0  9992
2 57363  43.0011 241.6045 0001583 264.4001  95.6670 15.27579260165695
STARLINK-6338           
1 57364U 23099AN  26196.13941647  .00000196  00000+0  16663-4 0  9998
2 57364  43.0053 241.6986 0002857 298.1211  61.9352 15.27581765165683
STARLINK-5007           
1 57365U 23099AP  26196.15740633 -.00000932  00000+0 -24339-4 0  9992
2 57365  43.0014 241.8182 0001522 278.9950  81.0729 15.27576141165699
STARLINK-6174           
1 57366U 23099AQ  26196.15355196 -.00000368  00000+0 -38638-5 0  9990
2 57366  42.9988 241.7929 0000967 270.5666  89.5075 15.27574820165699
STARLINK-6215           
1 57367U 23099AR  26196.12113524 -.00000207  00000+0  20012-5 0  9993
2 57367  43.0026 223.4176 0001302 271.5923  88.4780 15.27576435166659
STARLINK-6218           
1 57368U 23099AS  26196.16127425  .00000344  00000+0  22022-4 0  9996
2 57368  43.0016 241.8527 0001002 271.2079  88.8658 15.27583035165694
STARLINK-6168           
1 57369U 23099AT  26196.17261998  .00020030  00000+0  68051-3 0  9997
2 57369  43.0038 241.0881 0001301  37.7419 322.3525 15.30116765165706
STARLINK-5353           
1 57370U 23099AU  26196.16770753 -.00000650  00000+0 -14124-4 0  9993
2 57370  43.0009 241.8975 0000313 242.3005 117.7815 15.27560005165697
STARLINK-6032           
1 57371U 23099AV  26196.14970691 -.00000652  00000+0 -14175-4 0  9993
2 57371  42.9986 241.7670 0000652 237.3249 122.7540 15.27570229165691
STARLINK-5975           
1 57372U 23099AW  26196.17925244 -.00000053  00000+0  75912-5 0  9992
2 57372  43.0035 241.9733 0001596 283.4243  76.6431 15.27578453165698
STARLINK-6370           
1 57373U 23099AX  26196.17284264  .00000245  00000+0  18440-4 0  9997
2 57373  43.0032 241.9309 0001789 284.3262  75.7391 15.27567780165696
STARLINK-6369           
1 57374U 23099AY  26196.10586639 -.00000725  00000+0 -16830-4 0  9998
2 57374  43.0003 224.1758 0001315 282.3349  77.7355 15.27578466165892
STARLINK-6363           
1 57375U 23099AZ  26196.17153860 -.00000104  00000+0  57574-5 0  9993
2 57375  43.0015 241.9242 0001156 282.7763  77.2959 15.27575968165695
STARLINK-6367           
1 57376U 23099BA  26196.14891892  .00005354  00000+0  20396-3 0  9996
2 57376  42.9990 238.3545 0001554 272.3028  87.7645 15.27577793165734
STARLINK-6358           
1 57377U 23099BB  26196.17746999 -.00000224  00000+0  13916-5 0  9991
2 57377  43.0034 245.3957 0002171 259.2173 100.8434 15.27583630165642
STARLINK-6364           
1 57378U 23099BC  26196.10588769  .00000905  00000+0  42401-4 0  9999
2 57378  43.0029 212.8805 0001496 278.9941  81.0742 15.27573934166760
STARLINK-6361           
1 57379U 23099BD  26196.14504771 -.00003537  00000+0 -11904-3 0  9994
2 57379  42.9996 238.3226 0001319 290.8107  69.2603 15.27590329165730
STARLINK-6366           
1 57380U 23099BE  26196.04436031 -.00000948  00000+0 -24935-4 0  9990
2 57380  43.0032 213.2702 0001630 275.3340  84.7326 15.27563737166748
STARLINK-6371           
1 57381U 23099BF  26196.10201341  .00000035  00000+0  10795-4 0  9996
2 57381  43.0004 224.1360 0001371 278.0711  81.9985 15.27571979166638
STARLING 4              
1 57386U 23100A   26196.20660206  .00001202  00000+0  86733-4 0  9996
2 57386  99.5099 220.4784 0006804  31.2425 328.9200 15.06831214164123
STARLING 2              
1 57387U 23100B   26196.20694203  .00001341  00000+0  96044-4 0  9991
2 57387  99.5087 220.4988 0005910  41.9579 318.2094 15.06828108164123
STARLING 1              
1 57388U 23100C   26196.20674027  .00001235  00000+0  88898-4 0  9994
2 57388  99.5125 221.1178 0005334 177.5922 182.5325 15.06837213164120
STARLING 3              
1 57389U 23100D   26196.14249823  .00003469  00000+0  20353-3 0  9992
2 57389  99.5046 223.7459 0005576  34.0936 326.0646 15.12697891164295
LEMUR-2-DEVERILL-M-T    
1 57391U 23100F   26196.10098507  .00015384  00000+0  37445-3 0  9991
2 57391  99.4454 242.9511 0004680 297.4251  62.6512 15.41090109165547
LEO 3                   
1 57392U 23100G   26195.97072384 -.00000050  00000+0 -55660-5 0  9998
2 57392  99.5673 320.0372 0017445 305.7109  54.2413 13.68420886149447
TIANMU-1 07             
1 57399U 23101A   26196.15809360  .00003545  00000+0  12419-3 0  9992
2 57399  97.2577 246.1871 0003761  64.9212 295.2419 15.30115492165928
