OBJECT_NAME,OBJECT_ID,EPOCH,MEAN_MOTION,ECCENTRICITY,INCLINATION,RA_OF_ASC_NODE,ARG_OF_PERICENTER,MEAN_ANOMALY,EPHEMERIS_TYPE,CLASSIFICATION_TYPE,NORAD_CAT_ID,ELEMENT_SET_NO,REV_AT_EPOCH,BSTAR,MEAN_MOTION_DOT,MEAN_MOTION_DDOT
STARLINK-6347,2023-099AH,2026-07-15T02:23:36.902688,15.27573993,.0001194,43.0022,242.2577,274.9863,85.0852,0,U,57359,999,16568,-.2482E-5,-.33E-5,0
STARLINK-6348,2023-099AJ,2026-07-15T04:43:49.460736,15.27576002,.0001667,43.0021,241.2701,269.1271,90.9390,0,U,57360,999,16570,.36595E-5,-.162E-5,0
STARLINK-6340,2023-099AK,2026-07-15T04:21:49.405248,15.27576780,.0001263,43.0033,242.0056,276.0074,84.0633,0,U,57361,999,16569,-.42427E-5,-.379E-5,0
STARLINK-6343,2023-099AL,2026-07-15T04:49:22.075680,15.27574820,.0001424,43.0002,241.2931,262.3495,97.7195,0,U,57362,999,16569,.58441E-5,-.101E-5,0
STARLINK-6356,2023-099AM,2026-07-15T03:04:06.461184,15.27579260,.0001583,43.0011,241.6045,264.4001,95.6670,0,U,57363,999,16569,-.14432E-5,-.302E-5,0
STARLINK-6338,2023-099AN,2026-07-15T03:20:45.583008,15.27581765,.0002857,43.0053,241.6986,298.1211,61.9352,0,U,57364,999,16568,.16663E-4,.196E-5,0
STARLINK-5007,2023-099AP,2026-07-15T03:46:39.906912,15.27576141,.0001522,43.0014,241.8182,278.9950,81.0729,0,U,57365,999,16569,-.24339E-4,-.932E-5,0
STARLINK-6174,2023-099AQ,2026-07-15T03:41:06.889344,15.27574820,.0000967,42.9988,241.7929,270.5666,89.5075,0,U,57366,999,16569,-.38638E-5,-.368E-5,0
STARLINK-6215,2023-099AR,2026-07-15T02:54:26.084736,15.27576435,.0001302,43.0026,223.4176,271.5923,88.4780,0,U,57367,999,16665,.20012E-5,-.207E-5,0
STARLINK-6218,2023-099AS,2026-07-15T03:52:14.095200,15.27583035,.0001002,43.0016,241.8527,271.2079,88.8658,0,U,57368,999,16569,.22022E-4,.344E-5,0
STARLINK-6168,2023-099AT,2026-07-15T04:08:34.366272,15.30116765,.0001301,43.0038,241.0881,37.7419,322.3525,0,U,57369,999,16570,.68051E-3,.2003E-3,0
STARLINK-5353,2023-099AU,2026-07-15T04:01:29.930592,15.27560005,.0000313,43.0009,241.8975,242.3005,117.7815,0,U,57370,999,16569,-.14124E-4,-.65E-5,0
STARLINK-6032,2023-099AV,2026-07-15T03:35:34.677024,15.27570229,.0000652,42.9986,241.7670,237.3249,122.7540,0,U,57371,999,16569,-.14175E-4,-.652E-5,0
STARLINK-5975,2023-099AW,2026-07-15T04:18:07.410816,15.27578453,.0001596,43.0035,241.9733,283.4243,76.6431,0,U,57372,999,16569,.75912E-5,-.53E-6,0
STARLINK-6370,2023-099AX,2026-07-15T04:08:53.604096,15.27567780,.0001789,43.0032,241.9309,284.3262,75.7391,0,U,57373,999,16569,.1844E-4,.245E-5,0
STARLINK-6369,2023-099AY,2026-07-15T02:32:26.856096,15.27578466,.0001315,43.0003,224.1758,282.3349,77.7355,0,U,57374,999,16589,-.1683E-4,-.725E-5,0
STARLINK-6363,2023-099AZ,2026-07-15T04:07:00.935040,15.27575968,.0001156,43.0015,241.9242,282.7763,77.2959,0,U,57375,999,16569,.57574E-5,-.104E-5,0
STARLINK-6367,2023-099BA,2026-07-15T03:34:26.594688,15.27577793,.0001554,42.9990,238.3545,272.3028,87.7645,0,U,57376,999,16573,.20396E-3,.5354E-4,0
STARLINK-6358,2023-099BB,2026-07-15T04:15:33.407136,15.27583630,.0002171,43.0034,245.3957,259.2173,100.8434,0,U,57377,999,16564,.13916E-5,-.224E-5,0
STARLINK-6364,2023-099BC,2026-07-15T02:32:28.696416,15.27573934,.0001496,43.0029,212.8805,278.9941,81.0742,0,U,57378,999,16676,.42401E-4,.905E-5,0
STARLINK-6361,2023-099BD,2026-07-15T03:28:52.122144,15.27590329,.0001319,42.9996,238.3226,290.8107,69.2603,0,U,57379,999,16573,-.11904E-3,-.3537E-4,0
STARLINK-6366,2023-099BE,2026-07-15T01:03:52.730784,15.27563737,.000163,43.0032,213.2702,275.3340,84.7326,0,U,57380,999,16674,-.24935E-4,-.948E-5,0
STARLINK-6371,2023-099BF,2026-07-15T02:26:53.958624,15.27571979,.0001371,43.0004,224.1360,278.0711,81.9985,0,U,57381,999,16663,.10795E-4,.35E-6,0
STARLING 4,2023-100A,2026-07-15T04:57:30.417984,15.06831214,.0006804,99.5099,220.4784,31.2425,328.9200,0,U,57386,999,16412,.86733E-4,.1202E-4,0
STARLING 2,2023-100B,2026-07-15T04:57:59.791392,15.06828108,.000591,99.5087,220.4988,41.9579,318.2094,0,U,57387,999,16412,.96044E-4,.1341E-4,0
STARLING 1,2023-100C,2026-07-15T04:57:42.359328,15.06837213,.0005334,99.5125,221.1178,177.5922,182.5325,0,U,57388,999,16412,.88898E-4,.1235E-4,0
STARLING 3,2023-100D,2026-07-15T03:25:11.847072,15.12697891,.0005576,99.5046,223.7459,34.0936,326.0646,0,U,57389,999,16429,.20353E-3,.3469E-4,0
LEMUR-2-DEVERILL-M-T,2023-100F,2026-07-15T02:25:25.110048,15.41090109,.000468,99.4454,242.9511,297.4251,62.6512,0,U,57391,999,16554,.37445E-3,.15384E-3,0
LEO 3,2023-100G,2026-07-14T23:17:50.539776,13.68420886,.0017445,99.5673,320.0372,305.7109,54.2413,0,U,57392,999,14944,-.5566E-5,-.5E-6,0
TIANMU-1 07,2023-101A,2026-07-15T03:47:39.287040,15.30115492,.0003761,97.2577,246.1871,64.9212,295.2419,0,U,57399,999,16592,.12419E-3,.3545E-4,0
